{
  "type": "FeatureCollection",
  "features": [
    {
      "type": "Feature",
      "properties": {
        "norad_id": 66648,
        "name": "COSMOS 2598 (RODNIK-S 23)",
        "group": "last-30-days",
        "lat": 30.208075655107443,
        "lon": 105.75610755634236,
        "alt_km": 1500.1152443229548,
        "timestamp": "2025-12-06T18:50:08.956945+00:00",
        "meta_object_name": "COSMOS 2598 (RODNIK-S 23)",
        "meta_object_id": "2025-273B",
        "meta_epoch": "2025-12-05T22:42:15.560352",
        "meta_mean_motion": 12.42257804,
        "meta_eccentricity": 0.0007951,
        "meta_inclination": 82.5021,
        "meta_ra_of_asc_node": 290.6739,
        "meta_arg_of_pericenter": 291.8823,
        "meta_mean_anomaly": 68.1411,
        "meta_ephemeris_type": 0,
        "meta_classification_type": "U",
        "meta_norad_cat_id": 66648,
        "meta_element_set_no": 999,
        "meta_rev_at_epoch": 129,
        "meta_bstar": -5.8823389e-05,
        "meta_mean_motion_dot": 2e-08,
        "meta_mean_motion_ddot": 0,
        "tle_line1": "1 66648U 25273B   25339.94601343  .00000002  00000+0 -58823-4 0  9993",
        "tle_line2": "2 66648  82.5021 290.6739 0007951 291.8823  68.1411 12.42257804  1299"
      },
      "geometry": {
        "type": "Point",
        "coordinates": [
          105.75610755634236,
          30.208075655107443
        ]
      }
    },
    {
      "type": "Feature",
      "properties": {
        "norad_id": 66649,
        "name": "COSMOS 2599 (RODNIK-S 24)",
        "group": "last-30-days",
        "lat": 53.117791685335405,
        "lon": 100.05272550341675,
        "alt_km": 1500.9069485326536,
        "timestamp": "2025-12-06T18:50:08.956955+00:00",
        "meta_object_name": "COSMOS 2599 (RODNIK-S 24)",
        "meta_object_id": "2025-273C",
        "meta_epoch": "2025-12-06T06:33:19.803168",
        "meta_mean_motion": 12.41671792,
        "meta_eccentricity": 0.00082644,
        "meta_inclination": 82.5021,
        "meta_ra_of_asc_node": 290.4779,
        "meta_arg_of_pericenter": 314.8863,
        "meta_mean_anomaly": 45.1544,
        "meta_ephemeris_type": 0,
        "meta_classification_type": "U",
        "meta_norad_cat_id": 66649,
        "meta_element_set_no": 999,
        "meta_rev_at_epoch": 133,
        "meta_bstar": -2.5494885e-05,
        "meta_mean_motion_dot": 6e-08,
        "meta_mean_motion_ddot": 0,
        "tle_line1": "1 66649U 25273C   25340.27314587  .00000006  00000+0 -25495-4 0  9996",
        "tle_line2": "2 66649  82.5021 290.4779 0008264 314.8863  45.1544 12.41671792  1332"
      },
      "geometry": {
        "type": "Point",
        "coordinates": [
          100.05272550341675,
          53.117791685335405
        ]
      }
    },
    {
      "type": "Feature",
      "properties": {
        "norad_id": 66650,
        "name": "BEE-1000",
        "group": "last-30-days",
        "lat": 14.081676627080405,
        "lon": -93.8730027272255,
        "alt_km": 595.0385298771771,
        "timestamp": "2025-12-06T18:50:08.956967+00:00",
        "meta_object_name": "BEE-1000",
        "meta_object_id": "2025-274A",
        "meta_epoch": "2025-12-05T18:37:21.553824",
        "meta_mean_motion": 14.91624653,
        "meta_eccentricity": 0.00104286,
        "meta_inclination": 97.7388,
        "meta_ra_of_asc_node": 267.0917,
        "meta_arg_of_pericenter": 278.4883,
        "meta_mean_anomaly": 81.5154,
        "meta_ephemeris_type": 0,
        "meta_classification_type": "U",
        "meta_norad_cat_id": 66650,
        "meta_element_set_no": 999,
        "meta_rev_at_epoch": 136,
        "meta_bstar": 0.00030840612,
        "meta_mean_motion_dot": 3.044e-05,
        "meta_mean_motion_ddot": 0,
        "tle_line1": "1 66650U 25274A   25339.77594391  .00003044  00000+0  30841-3 0  9999",
        "tle_line2": "2 66650  97.7388 267.0917 0010428 278.4883  81.5154 14.91624653  1369"
      },
      "geometry": {
        "type": "Point",
        "coordinates": [
          -93.8730027272255,
          14.081676627080405
        ]
      }
    },
    {
      "type": "Feature",
      "properties": {
        "norad_id": 66651,
        "name": "2025-274B",
        "group": "last-30-days",
        "lat": 16.527701851979756,
        "lon": -94.23033753898811,
        "alt_km": 594.7945042120864,
        "timestamp": "2025-12-06T18:50:08.956977+00:00",
        "meta_object_name": "2025-274B",
        "meta_object_id": "2025-274B",
        "meta_epoch": "2025-12-06T04:16:20.705952",
        "meta_mean_motion": 14.91722271,
        "meta_eccentricity": 0.00107219,
        "meta_inclination": 97.7387,
        "meta_ra_of_asc_node": 267.4867,
        "meta_arg_of_pericenter": 276.4325,
        "meta_mean_anomaly": 83.5673,
        "meta_ephemeris_type": 0,
        "meta_classification_type": "U",
        "meta_norad_cat_id": 66651,
        "meta_element_set_no": 999,
        "meta_rev_at_epoch": 142,
        "meta_bstar": 0.00063726516,
        "meta_mean_motion_dot": 6.368e-05,
        "meta_mean_motion_ddot": 0,
        "tle_line1": "1 66651U 25274B   25340.17801743  .00006368  00000+0  63727-3 0  9999",
        "tle_line2": "2 66651  97.7387 267.4867 0010721 276.4325  83.5673 14.91722271  1422"
      },
      "geometry": {
        "type": "Point",
        "coordinates": [
          -94.23033753898811,
          16.527701851979756
        ]
      }
    },
    {
      "type": "Feature",
      "properties": {
        "norad_id": 66652,
        "name": "2025-274C",
        "group": "last-30-days",
        "lat": 21.740470818897563,
        "lon": -95.0233058086185,
        "alt_km": 593.3406131539932,
        "timestamp": "2025-12-06T18:50:08.956987+00:00",
        "meta_object_name": "2025-274C",
        "meta_object_id": "2025-274C",
        "meta_epoch": "2025-12-06T04:15:00.570816",
        "meta_mean_motion": 14.9185212,
        "meta_eccentricity": 0.00104589,
        "meta_inclination": 97.7389,
        "meta_ra_of_asc_node": 267.4886,
        "meta_arg_of_pericenter": 283.2808,
        "meta_mean_anomaly": 76.7244,
        "meta_ephemeris_type": 0,
        "meta_classification_type": "U",
        "meta_norad_cat_id": 66652,
        "meta_element_set_no": 999,
        "meta_rev_at_epoch": 142,
        "meta_bstar": 0.00044863101,
        "meta_mean_motion_dot": 4.48e-05,
        "meta_mean_motion_ddot": 0,
        "tle_line1": "1 66652U 25274C   25340.17708994  .00004480  00000+0  44863-3 0  9997",
        "tle_line2": "2 66652  97.7389 267.4886 0010458 283.2808  76.7244 14.91852120  1420"
      },
      "geometry": {
        "type": "Point",
        "coordinates": [
          -95.0233058086185,
          21.740470818897563
        ]
      }
    },
    {
      "type": "Feature",
      "properties": {
        "norad_id": 66653,
        "name": "2025-274D",
        "group": "last-30-days",
        "lat": 22.018967827903495,
        "lon": -95.06739773115095,
        "alt_km": 593.9835506423751,
        "timestamp": "2025-12-06T18:50:08.956998+00:00",
        "meta_object_name": "2025-274D",
        "meta_object_id": "2025-274D",
        "meta_epoch": "2025-12-06T04:14:56.109984",
        "meta_mean_motion": 14.91856103,
        "meta_eccentricity": 0.00112563,
        "meta_inclination": 97.7389,
        "meta_ra_of_asc_node": 267.4885,
        "meta_arg_of_pericenter": 279.1075,
        "meta_mean_anomaly": 80.8871,
        "meta_ephemeris_type": 0,
        "meta_classification_type": "U",
        "meta_norad_cat_id": 66653,
        "meta_element_set_no": 999,
        "meta_rev_at_epoch": 142,
        "meta_bstar": 0.00039278117,
        "meta_mean_motion_dot": 3.916e-05,
        "meta_mean_motion_ddot": 0,
        "tle_line1": "1 66653U 25274D   25340.17703831  .00003916  00000+0  39278-3 0  9990",
        "tle_line2": "2 66653  97.7389 267.4885 0011256 279.1075  80.8871 14.91856103  1424"
      },
      "geometry": {
        "type": "Point",
        "coordinates": [
          -95.06739773115095,
          22.018967827903495
        ]
      }
    },
    {
      "type": "Feature",
      "properties": {
        "norad_id": 66654,
        "name": "JACK E",
        "group": "last-30-days",
        "lat": 27.908646450305586,
        "lon": -96.04233176560908,
        "alt_km": 593.2275580573214,
        "timestamp": "2025-12-06T18:50:08.957011+00:00",
        "meta_object_name": "JACK E",
        "meta_object_id": "2025-274E",
        "meta_epoch": "2025-12-06T04:13:26.304960",
        "meta_mean_motion": 14.92026585,
        "meta_eccentricity": 0.00118402,
        "meta_inclination": 97.7391,
        "meta_ra_of_asc_node": 267.4904,
        "meta_arg_of_pericenter": 280.5902,
        "meta_mean_anomaly": 79.3983,
        "meta_ephemeris_type": 0,
        "meta_classification_type": "U",
        "meta_norad_cat_id": 66654,
        "meta_element_set_no": 999,
        "meta_rev_at_epoch": 142,
        "meta_bstar": 0.00042682545,
        "meta_mean_motion_dot": 4.279e-05,
        "meta_mean_motion_ddot": 0,
        "tle_line1": "1 66654U 25274E   25340.17599890  .00004279  00000+0  42683-3 0  9996",
        "tle_line2": "2 66654  97.7391 267.4904 0011840 280.5902  79.3983 14.92026585  1425"
      },
      "geometry": {
        "type": "Point",
        "coordinates": [
          -96.04233176560908,
          27.908646450305586
        ]
      }
    }
  ]
}